STARLINK-5642           
1 55430U 23014AR  23066.91667824 -.01245229  00000+0 -59797-1 0  9991
2 55430  70.0006 352.7074 0003362 268.2811  89.7308 15.21748160  1306
STARLINK-5643           
1 55431U 23014AS  23067.11068914  .00001477  00000+0  14043-4 0  9990
2 55431  69.9982 350.1138 0003659 268.7284  91.3492 15.69933024  5762
STARLINK-5637           
1 55432U 23014AT  23067.25001157 -.01196467  00000+0 -60407-1 0  9991
2 55432  70.0011 351.8815 0003274 271.1933  72.1824 15.19924365  5737
STARLINK-5570           
1 55433U 23014AU  23066.91667824 -.01244091  00000+0 -59311-1 0  9992
2 55433  70.0012 352.6970 0003368 267.8920 100.8382 15.21990655  1307
STARLINK-5621           
1 55434U 23014AV  23066.91667824 -.01243510  00000+0 -62073-1 0  9997
2 55434  70.0014 352.7736 0003258 265.0885  35.2061 15.20427730  1302
STARLINK-5626           
1 55435U 23014AW  23066.91667824 -.01244150  00000+0 -61734-1 0  9992
2 55435  70.0014 352.7620 0003255 267.6453  43.5538 15.20633688  1303
STARLINK-5640           
1 55436U 23014AX  23067.25001157 -.01200865  00000+0 -61609-1 0  9998
2 55436  70.0012 351.9141 0003189 270.7484  44.8354 15.19385983  5737
STARLINK-5080           
1 55437U 23014AY  23066.91667824 -.01242355  00000+0 -61947-1 0  9995
2 55437  70.0018 352.7712 0003259 268.2851  34.7391 15.20462548  1308
STARLINK-5074           
1 55438U 23014AZ  23067.10657069  .00001786  00000+0  16614-4 0  9990
2 55438  70.0006 350.1078 0002965 263.0313  97.0546 15.69931630  5766
STARLINK-5634           
1 55439U 23014BA  23066.91667824 -.01245010  00000+0 -63977-1 0  9993
2 55439  70.0014 352.8236 0003108 265.8949 350.8394 15.19439775  1301
ION SCV-009             
1 55441U 23014BC  23066.18790428  .00102407  00000+0  76732-3 0  9996
2 55441  70.0096 352.5373 0057132 295.7159  63.8145 15.69935146  5749
EBAD TEST MASS          
1 55446U 23014BH  23067.05943611  .00110404  00000+0  45347-3 0  9996
2 55446  70.0106 348.6984 0006418 193.5168 166.5865 15.85511219  5914
APSTAR 6E SPS           
1 55447U 23005C   23066.81528151 -.00000063  00000+0 -15187-1 0  9996
2 55447  28.6826 278.1471 2305150 237.5952  98.0601  7.60507174  2720
STARLINK-5699           
1 55449U 23015A   23067.04444200  .00001601  00000+0  15658-4 0  9990
2 55449  43.0018 185.4448 0001930 274.2521  85.8126 15.71350759  5463
