[
  {
    "OBJECT_NAME": "STARLINK-5642",
    "OBJECT_ID": "2023-014AR",
    "EPOCH": "2023-03-07T22:00:00.999936",
    "MEAN_MOTION": 15.2174816,
    "ECCENTRICITY": 0.0003362,
    "INCLINATION": 70.0006,
    "RA_OF_ASC_NODE": 352.7074,
    "ARG_OF_PERICENTER": 268.2811,
    "MEAN_ANOMALY": 89.7308,
    "EPHEMERIS_TYPE": 0,
    "CLASSIFICATION_TYPE": "U",
    "NORAD_CAT_ID": 55430,
    "ELEMENT_SET_NO": 999,
    "REV_AT_EPOCH": 130,
    "BSTAR": -0.059797,
    "MEAN_MOTION_DOT": -0.01245229,
    "MEAN_MOTION_DDOT": 0
  },
  {
    "OBJECT_NAME": "STARLINK-5643",
    "OBJECT_ID": "2023-014AS",
    "EPOCH": "2023-03-08T02:39:23.541696",
    "MEAN_MOTION": 15.69933024,
    "ECCENTRICITY": 0.0003659,
    "INCLINATION": 69.9982,
    "RA_OF_ASC_NODE": 350.1138,
    "ARG_OF_PERICENTER": 268.7284,
    "MEAN_ANOMALY": 91.3492,
    "EPHEMERIS_TYPE": 0,
    "CLASSIFICATION_TYPE": "U",
    "NORAD_CAT_ID": 55431,
    "ELEMENT_SET_NO": 999,
    "REV_AT_EPOCH": 576,
    "BSTAR": 1.4043e-5,
    "MEAN_MOTION_DOT": 1.477e-5,
    "MEAN_MOTION_DDOT": 0
  },
  {
    "OBJECT_NAME": "STARLINK-5637",
    "OBJECT_ID": "2023-014AT",
    "EPOCH": "2023-03-08T06:00:00.999648",
    "MEAN_MOTION": 15.19924365,
    "ECCENTRICITY": 0.0003274,
    "INCLINATION": 70.0011,
    "RA_OF_ASC_NODE": 351.8815,
    "ARG_OF_PERICENTER": 271.1933,
    "MEAN_ANOMALY": 72.1824,
    "EPHEMERIS_TYPE": 0,
    "CLASSIFICATION_TYPE": "U",
    "NORAD_CAT_ID": 55432,
    "ELEMENT_SET_NO": 999,
    "REV_AT_EPOCH": 573,
    "BSTAR": -0.060407,
    "MEAN_MOTION_DOT": -0.01196467,
    "MEAN_MOTION_DDOT": 0
  },
  {
    "OBJECT_NAME": "STARLINK-5570",
    "OBJECT_ID": "2023-014AU",
    "EPOCH": "2023-03-07T22:00:00.999936",
    "MEAN_MOTION": 15.21990655,
    "ECCENTRICITY": 0.0003368,
    "INCLINATION": 70.0012,
    "RA_OF_ASC_NODE": 352.697,
    "ARG_OF_PERICENTER": 267.892,
    "MEAN_ANOMALY": 100.8382,
    "EPHEMERIS_TYPE": 0,
    "CLASSIFICATION_TYPE": "U",
    "NORAD_CAT_ID": 55433,
    "ELEMENT_SET_NO": 999,
    "REV_AT_EPOCH": 130,
    "BSTAR": -0.059311,
    "MEAN_MOTION_DOT": -0.01244091,
    "MEAN_MOTION_DDOT": 0
  },
  {
    "OBJECT_NAME": "STARLINK-5621",
    "OBJECT_ID": "2023-014AV",
    "EPOCH": "2023-03-07T22:00:00.999936",
    "MEAN_MOTION": 15.2042773,
    "ECCENTRICITY": 0.0003258,
    "INCLINATION": 70.0014,
    "RA_OF_ASC_NODE": 352.7736,
    "ARG_OF_PERICENTER": 265.0885,
    "MEAN_ANOMALY": 35.2061,
    "EPHEMERIS_TYPE": 0,
    "CLASSIFICATION_TYPE": "U",
    "NORAD_CAT_ID": 55434,
    "ELEMENT_SET_NO": 999,
    "REV_AT_EPOCH": 130,
    "BSTAR": -0.062073,
    "MEAN_MOTION_DOT": -0.0124351,
    "MEAN_MOTION_DDOT": 0
  },
  {
    "OBJECT_NAME": "STARLINK-5626",
    "OBJECT_ID": "2023-014AW",
    "EPOCH": "2023-03-07T22:00:00.999936",
    "MEAN_MOTION": 15.20633688,
    "ECCENTRICITY": 0.0003255,
    "INCLINATION": 70.0014,
    "RA_OF_ASC_NODE": 352.762,
    "ARG_OF_PERICENTER": 267.6453,
    "MEAN_ANOMALY": 43.5538,
    "EPHEMERIS_TYPE": 0,
    "CLASSIFICATION_TYPE": "U",
    "NORAD_CAT_ID": 55435,
    "ELEMENT_SET_NO": 999,
    "REV_AT_EPOCH": 130,
    "BSTAR": -0.061734,
    "MEAN_MOTION_DOT": -0.0124415,
    "MEAN_MOTION_DDOT": 0
  },
  {
    "OBJECT_NAME": "STARLINK-5640",
    "OBJECT_ID": "2023-014AX",
    "EPOCH": "2023-03-08T06:00:00.999648",
    "MEAN_MOTION": 15.19385983,
    "ECCENTRICITY": 0.0003189,
    "INCLINATION": 70.0012,
    "RA_OF_ASC_NODE": 351.9141,
    "ARG_OF_PERICENTER": 270.7484,
    "MEAN_ANOMALY": 44.8354,
    "EPHEMERIS_TYPE": 0,
    "CLASSIFICATION_TYPE": "U",
    "NORAD_CAT_ID": 55436,
    "ELEMENT_SET_NO": 999,
    "REV_AT_EPOCH": 573,
    "BSTAR": -0.061609,
    "MEAN_MOTION_DOT": -0.01200865,
    "MEAN_MOTION_DDOT": 0
  },
  {
    "OBJECT_NAME": "STARLINK-5080",
    "OBJECT_ID": "2023-014AY",
    "EPOCH": "2023-03-07T22:00:00.999936",
    "MEAN_MOTION": 15.20462548,
    "ECCENTRICITY": 0.0003259,
    "INCLINATION": 70.0018,
    "RA_OF_ASC_NODE": 352.7712,
    "ARG_OF_PERICENTER": 268.2851,
    "MEAN_ANOMALY": 34.7391,
    "EPHEMERIS_TYPE": 0,
    "CLASSIFICATION_TYPE": "U",
    "NORAD_CAT_ID": 55437,
    "ELEMENT_SET_NO": 999,
    "REV_AT_EPOCH": 130,
    "BSTAR": -0.061947,
    "MEAN_MOTION_DOT": -0.01242355,
    "MEAN_MOTION_DDOT": 0
  },
  {
    "OBJECT_NAME": "STARLINK-5074",
    "OBJECT_ID": "2023-014AZ",
    "EPOCH": "2023-03-08T02:33:27.707616",
    "MEAN_MOTION": 15.6993163,
    "ECCENTRICITY": 0.0002965,
    "INCLINATION": 70.0006,
    "RA_OF_ASC_NODE": 350.1078,
    "ARG_OF_PERICENTER": 263.0313,
    "MEAN_ANOMALY": 97.0546,
    "EPHEMERIS_TYPE": 0,
    "CLASSIFICATION_TYPE": "U",
    "NORAD_CAT_ID": 55438,
    "ELEMENT_SET_NO": 999,
    "REV_AT_EPOCH": 576,
    "BSTAR": 1.6614e-5,
    "MEAN_MOTION_DOT": 1.786e-5,
    "MEAN_MOTION_DDOT": 0
  },
  {
    "OBJECT_NAME": "STARLINK-5634",
    "OBJECT_ID": "2023-014BA",
    "EPOCH": "2023-03-07T22:00:00.999936",
    "MEAN_MOTION": 15.19439775,
    "ECCENTRICITY": 0.0003108,
    "INCLINATION": 70.0014,
    "RA_OF_ASC_NODE": 352.8236,
    "ARG_OF_PERICENTER": 265.8949,
    "MEAN_ANOMALY": 350.8394,
    "EPHEMERIS_TYPE": 0,
    "CLASSIFICATION_TYPE": "U",
    "NORAD_CAT_ID": 55439,
    "ELEMENT_SET_NO": 999,
    "REV_AT_EPOCH": 130,
    "BSTAR": -0.063977,
    "MEAN_MOTION_DOT": -0.0124501,
    "MEAN_MOTION_DDOT": 0
  },
  {
    "OBJECT_NAME": "ION SCV-009",
    "OBJECT_ID": "2023-014BC",
    "EPOCH": "2023-03-07T04:30:34.929792",
    "MEAN_MOTION": 15.69935146,
    "ECCENTRICITY": 0.0057132,
    "INCLINATION": 70.0096,
    "RA_OF_ASC_NODE": 352.5373,
    "ARG_OF_PERICENTER": 295.7159,
    "MEAN_ANOMALY": 63.8145,
    "EPHEMERIS_TYPE": 0,
    "CLASSIFICATION_TYPE": "U",
    "NORAD_CAT_ID": 55441,
    "ELEMENT_SET_NO": 999,
    "REV_AT_EPOCH": 574,
    "BSTAR": 0.00076732,
    "MEAN_MOTION_DOT": 0.00102407,
    "MEAN_MOTION_DDOT": 0
  },
  {
    "OBJECT_NAME": "EBAD TEST MASS",
    "OBJECT_ID": "2023-014BH",
    "EPOCH": "2023-03-08T01:25:35.279904",
    "MEAN_MOTION": 15.85511219,
    "ECCENTRICITY": 0.0006418,
    "INCLINATION": 70.0106,
    "RA_OF_ASC_NODE": 348.6984,
    "ARG_OF_PERICENTER": 193.5168,
    "MEAN_ANOMALY": 166.5865,
    "EPHEMERIS_TYPE": 0,
    "CLASSIFICATION_TYPE": "U",
    "NORAD_CAT_ID": 55446,
    "ELEMENT_SET_NO": 999,
    "REV_AT_EPOCH": 591,
    "BSTAR": 0.00045347,
    "MEAN_MOTION_DOT": 0.00110404,
    "MEAN_MOTION_DDOT": 0
  },
  {
    "OBJECT_NAME": "APSTAR 6E SPS",
    "OBJECT_ID": "2023-005C",
    "EPOCH": "2023-03-07T19:34:00.322464",
    "MEAN_MOTION": 7.60507174,
    "ECCENTRICITY": 0.230515,
    "INCLINATION": 28.6826,
    "RA_OF_ASC_NODE": 278.1471,
    "ARG_OF_PERICENTER": 237.5952,
    "MEAN_ANOMALY": 98.0601,
    "EPHEMERIS_TYPE": 0,
    "CLASSIFICATION_TYPE": "U",
    "NORAD_CAT_ID": 55447,
    "ELEMENT_SET_NO": 999,
    "REV_AT_EPOCH": 272,
    "BSTAR": -0.015187,
    "MEAN_MOTION_DOT": -6.3e-7,
    "MEAN_MOTION_DDOT": 0
  },
  {
    "OBJECT_NAME": "STARLINK-5699",
    "OBJECT_ID": "2023-015A",
    "EPOCH": "2023-03-08T01:03:59.788800",
    "MEAN_MOTION": 15.71350759,
    "ECCENTRICITY": 0.000193,
    "INCLINATION": 43.0018,
    "RA_OF_ASC_NODE": 185.4448,
    "ARG_OF_PERICENTER": 274.2521,
    "MEAN_ANOMALY": 85.8126,
    "EPHEMERIS_TYPE": 0,
    "CLASSIFICATION_TYPE": "U",
    "NORAD_CAT_ID": 55449,
    "ELEMENT_SET_NO": 999,
    "REV_AT_EPOCH": 546,
    "BSTAR": 1.5658e-5,
    "MEAN_MOTION_DOT": 1.601e-5,
    "MEAN_MOTION_DDOT": 0
  }
]
